NORAD_CAT_ID,OBJECT_NAME,OBJECT_TYPE,EPOCH,MEAN_MOTION,ECCENTRICITY,INCLINATION,RA_OF_ASC_NODE,ARG_OF_PERICENTER,MEAN_ANOMALY,BSTAR,MEAN_MOTION_DOT,MEAN_MOTION_DDOT,TLE_LINE0,TLE_LINE1,TLE_LINE2,SEMIMAJOR_AXIS,PERIOD,APOGEE,PERIGEE,DECAYED
53904.0,STARLINK-4787,PAYLOAD,2023-08-13 16:38:01,15.08852209,0.0001144,53.2163,219.0376,87.2912,272.8211,-0.00016738,-2.952e-05,0.0,0 STARLINK-4787,1 53904U 22119U   23225.69307807 -.00002952  00000-0 -16738-3 0  9998,2 53904  53.2163 219.0376 0001144  87.2912 272.8211 15.08852209 49512,6917.843,95.437,540.499,538.917,0.0
53904.0,STARLINK-4787,PAYLOAD,2023-08-14 00:34:58,15.08835044,0.0001361,53.2171,217.5504,85.3956,274.7192,5.8953e-06,-1.94e-06,0.0,0 STARLINK-4787,1 53904U 22119U   23226.02428594 -.00000194  00000-0  58953-5 0  9995,2 53904  53.2171 217.5504 0001361  85.3956 274.7192 15.08835044 49567,6917.896,95.438,540.702,538.819,0.0
53904.0,STARLINK-4787,PAYLOAD,2023-08-15 00:25:45,15.08840704,0.0001302,53.2163,213.0914,87.5053,272.6088,5.7869e-05,6.33e-06,0.0,0 STARLINK-4787,1 53904U 22119U   23227.01788226  .00000633  00000-0  57869-4 0  9997,2 53904  53.2163 213.0914 0001302  87.5053 272.6088 15.08840704 49718,6917.878,95.438,540.644,538.843,0.0
53904.0,STARLINK-4787,PAYLOAD,2023-08-16 08:13:27,15.08843517,0.0001242,53.2163,207.1445,89.9247,270.1888,8.6827e-05,1.094e-05,0.0,0 STARLINK-4787,1 53904U 22119U   23228.34267943  .00001094  00000-0  86827-4 0  9990,2 53904  53.2163 207.1445 0001242  89.9247 270.1888 15.08843517 49913,6917.87,95.437,540.594,538.875,0.0
53904.0,STARLINK-4787,PAYLOAD,2023-08-16 16:10:23,15.08839095,0.0001232,53.216,205.6566,93.0272,267.0861,2.8035e-05,1.58e-06,0.0,0 STARLINK-4787,1 53904U 22119U   23228.67388353  .00000158  00000-0  28035-4 0  9992,2 53904  53.2160 205.6566 0001232  93.0272 267.0861 15.08839095 49967,6917.883,95.438,540.6,538.896,0.0
53904.0,STARLINK-4787,PAYLOAD,2023-08-18 03:08:52,15.08836978,0.0001387,53.2165,199.1141,99.4765,260.6384,1.1116e-05,-1.11e-06,0.0,0 STARLINK-4787,1 53904U 22119U   23230.13116675 -.00000111  00000-0  11116-4 0  9994,2 53904  53.2165 199.1141 0001387  99.4765 260.6384 15.08836978 50188,6917.89,95.438,540.714,538.795,0.0
53904.0,STARLINK-4787,PAYLOAD,2023-08-19 07:45:48,15.08843684,0.0001426,53.217,193.7625,95.7545,264.361,0.00010041,1.311e-05,0.0,0 STARLINK-4787,1 53904U 22119U   23231.32348198  .00001311  00000-0  10041-3 0  9990,2 53904  53.2170 193.7625 0001426  95.7545 264.3610 15.08843684 50365,6917.869,95.437,540.721,538.748,0.0
53904.0,STARLINK-4787,PAYLOAD,2023-08-19 14:07:21,15.08838728,0.0001366,53.2169,192.5726,89.6134,270.5015,4.302e-06,-2.19e-06,0.0,0 STARLINK-4787,1 53904U 22119U   23231.58844773 -.00000219  00000-0  43020-5 0  9990,2 53904  53.2169 192.5726 0001366  89.6134 270.5015 15.08838728 50407,6917.884,95.438,540.694,538.804,0.0
53904.0,STARLINK-4787,PAYLOAD,2023-08-20 02:50:27,15.08831194,0.0001374,53.2172,190.1941,86.5857,273.5293,9.8287e-06,-1.32e-06,0.0,0 STARLINK-4787,1 53904U 22119U   23232.11837605 -.00000132  00000-0  98287-5 0  9995,2 53904  53.2172 190.1941 0001374  86.5857 273.5293 15.08831194 50480,6917.907,95.438,540.723,538.822,0.0
53904.0,STARLINK-4787,PAYLOAD,2023-08-21 02:41:13,15.08847872,0.0001382,53.2178,185.7348,91.5094,268.6056,4.996e-05,5.07e-06,0.0,0 STARLINK-4787,1 53904U 22119U   23233.11196616  .00000507  00000-0  49960-4 0  9994,2 53904  53.2178 185.7348 0001382  91.5094 268.6056 15.08847872 50634,6917.856,95.437,540.677,538.765,0.0
53904.0,STARLINK-4787,PAYLOAD,2023-08-22 02:32:01,15.08835006,0.0001267,53.2174,181.2753,90.0747,270.039,6.1654e-05,6.93e-06,0.0,0 STARLINK-4787,1 53904U 22119U   23234.10557594  .00000693  00000-0  61654-4 0  9990,2 53904  53.2174 181.2753 0001267  90.0747 270.0390 15.08835006 50782,6917.896,95.438,540.637,538.884,0.0
53904.0,STARLINK-4787,PAYLOAD,2023-08-23 03:58:11,15.0884684,0.0001374,53.218,176.5154,83.5993,276.5156,2.5122e-05,1.12e-06,0.0,0 STARLINK-4787,1 53904U 22119U   23235.16541267  .00000112  00000-0  25122-4 0  9993,2 53904  53.2180 176.5154 0001374  83.5993 276.5156 15.08846840 50947,6917.859,95.437,540.675,538.774,0.0
53904.0,STARLINK-4787,PAYLOAD,2023-08-24 05:24:21,15.08842749,0.0001395,53.2176,171.7575,91.3737,268.7415,0.00011746,1.582e-05,0.0,0 STARLINK-4787,1 53904U 22119U   23236.22525442  .00001582  00000-0  11746-3 0  9996,2 53904  53.2176 171.7575 0001395  91.3737 268.7415 15.08842749 51522,6917.872,95.437,540.702,538.772,0.0
53904.0,STARLINK-4787,PAYLOAD,2023-08-25 02:04:22,15.08853125,0.0001481,53.2176,167.89,77.4905,282.6253,4.9788e-05,5.05e-06,0.0,0 STARLINK-4787,1 53904U 22119U   23237.08637051  .00000505  00000-0  49788-4 0  9993,2 53904  53.2176 167.8900 0001481  77.4905 282.6253 15.08853125 51231,6917.84,95.437,540.73,538.681,0.0
53904.0,STARLINK-4787,PAYLOAD,2023-08-25 19:33:37,15.08843161,0.000155,53.2178,164.6206,86.0777,274.0392,3.1394e-05,2.12e-06,0.0,0 STARLINK-4787,1 53904U 22119U   23237.81501695  .00000212  00000-0  31394-4 0  9997,2 53904  53.2178 164.6206 0001550  86.0777 274.0392 15.08843161 51347,6917.871,95.437,540.808,538.663,0.0
53904.0,STARLINK-4787,PAYLOAD,2023-08-26 05:05:56,15.08843585,0.0001323,53.2178,162.8361,98.8609,261.2533,4.7992e-05,4.76e-06,0.0,0 STARLINK-4787,1 53904U 22119U   23238.21245402  .00000476  00000-0  47992-4 0  9996,2 53904  53.2178 162.8361 0001323  98.8609 261.2533 15.08843585 51820,6917.869,95.437,540.65,538.819,0.0
53904.0,STARLINK-4787,PAYLOAD,2023-08-27 03:21:20,15.08844876,0.0001318,53.2181,158.6738,79.436,280.678,1.5733e-05,-3.7e-07,0.0,0 STARLINK-4787,1 53904U 22119U   23239.13981510 -.00000037  00000-0  15733-4 0  9997,2 53904  53.2181 158.6738 0001318  79.4360 280.6780 15.08844876 51540,6917.865,95.437,540.642,538.819,0.0
53904.0,STARLINK-4787,PAYLOAD,2023-08-28 00:01:21,15.08835708,0.0001194,53.2183,154.8123,100.4777,259.635,5.7417e-05,6.26e-06,0.0,0 STARLINK-4787,1 53904U 22119U   23240.00094047  .00000626  00000-0  57417-4 0  9993,2 53904  53.2183 154.8123 0001194 100.4777 259.6350 15.08835708 51674,6917.894,95.438,540.585,538.933,0.0
53904.0,STARLINK-4787,PAYLOAD,2023-08-28 17:30:36,15.08830661,0.0001051,53.2175,151.5397,91.2031,268.9082,4.6214e-05,4.48e-06,0.0,0 STARLINK-4787,1 53904U 22119U   23240.72958549  .00000448  00000-0  46214-4 0  9993,2 53904  53.2175 151.5397 0001051  91.2031 268.9082 15.08830661 52202,6917.909,95.438,540.501,539.047,0.0
53904.0,STARLINK-4787,PAYLOAD,2023-08-29 01:27:31,15.08841821,0.0001319,53.2181,150.0525,105.0093,255.1045,4.1113e-05,3.67e-06,0.0,0 STARLINK-4787,1 53904U 22119U   23241.06077988  .00000367  00000-0  41113-4 0  9993,2 53904  53.2181 150.0525 0001319 105.0093 255.1045 15.08841821 51830,6917.875,95.437,540.652,538.827,0.0
53904.0,STARLINK-4787,PAYLOAD,2023-08-29 10:59:50,15.08839053,0.0001283,53.2185,148.2674,82.4599,277.6539,6.1944e-05,6.98e-06,0.0,0 STARLINK-4787,1 53904U 22119U   23241.45822213  .00000698  00000-0  61944-4 0  9996,2 53904  53.2185 148.2674 0001283  82.4599 277.6539 15.08839053 52312,6917.883,95.438,540.636,538.861,0.0
53904.0,STARLINK-4787,PAYLOAD,2023-08-30 01:18:18,15.08840638,0.0001191,53.2175,145.5919,86.6673,273.4455,6.5111e-06,-1.84e-06,0.0,0 STARLINK-4787,1 53904U 22119U   23242.05438442 -.00000184  00000-0  65111-5 0  9992,2 53904  53.2175 145.5919 0001191  86.6673 273.4455 15.08840638 51984,6917.878,95.438,540.567,538.92,0.0
53904.0,STARLINK-4787,PAYLOAD,2023-08-30 10:50:37,15.08840541,0.0001147,53.2174,143.8074,85.0668,275.0455,-4.7956e-06,-3.64e-06,0.0,0 STARLINK-4787,1 53904U 22119U   23242.45182467 -.00000364  00000-0 -47956-5 0  9997,2 53904  53.2174 143.8074 0001147  85.0668 275.0455 15.08840541 52469,6917.879,95.438,540.537,538.95,0.0
53904.0,STARLINK-4787,PAYLOAD,2023-08-30 23:33:42,15.08838348,0.0001322,53.2172,141.4289,82.2423,277.8719,8.6216e-05,1.084e-05,0.0,0 STARLINK-4787,1 53904U 22119U   23242.98174569  .00001084  00000-0  86216-4 0  9998,2 53904  53.2172 141.4289 0001322  82.2423 277.8719 15.08838348 52546,6917.885,95.438,540.665,538.836,0.0
53904.0,STARLINK-4787,PAYLOAD,2023-08-31 23:24:29,15.08844956,0.000123,53.2173,136.9675,82.4888,277.6244,5.7583e-05,6.29e-06,0.0,0 STARLINK-4787,1 53904U 22119U   23243.97534196  .00000629  00000-0  57583-4 0  9993,2 53904  53.2173 136.9675 0001230  82.4888 277.6244 15.08844956 52273,6917.865,95.437,540.581,538.879,0.0
53904.0,STARLINK-4787,PAYLOAD,2023-09-01 10:32:11,15.08849854,0.0001374,53.2168,134.8883,76.3023,283.8122,5.3801e-05,5.69e-06,0.0,0 STARLINK-4787,1 53904U 22119U   23244.43901840  .00000569  00000-0  53801-4 0  9991,2 53904  53.2168 134.8883 0001374  76.3023 283.8122 15.08849854 52767,6917.85,95.437,540.666,538.765,0.0
53904.0,STARLINK-4787,PAYLOAD,2023-09-01 16:53:43,15.08845369,6.2e-05,53.2193,133.6992,94.2046,265.9017,7.3007e-05,8.75e-06,0.0,0 STARLINK-4787,1 53904U 22119U   23244.70397707  .00000875  00000-0  73007-4 0  9992,2 53904  53.2193 133.6992 0000620  94.2046 265.9017 15.08845369 52806,6917.864,95.437,540.158,539.3,0.0
53904.0,STARLINK-4787,PAYLOAD,2023-09-02 02:26:02,15.08869855,0.0001226,53.2155,131.914,90.3335,269.7798,-0.0002174,-3.749e-05,0.0,0 STARLINK-4787,1 53904U 22119U   23245.10141233 -.00003749  00000-0 -21740-3 0  9999,2 53904  53.2155 131.9140 0001226  90.3335 269.7798 15.08869855 52445,6917.789,95.436,540.502,538.806,0.0
53904.0,STARLINK-4787,PAYLOAD,2023-09-02 16:44:31,15.08836813,0.0001001,53.2147,129.2344,106.6059,253.5043,-3.6726e-06,-3.46e-06,0.0,0 STARLINK-4787,1 53904U 22119U   23245.69758536 -.00000346  00000-0 -36726-5 0  9995,2 53904  53.2147 129.2344 0001001 106.6059 253.5043 15.08836813 52539,6917.89,95.438,540.448,539.063,0.0
53904.0,STARLINK-4787,PAYLOAD,2023-09-02 19:55:17,15.08838797,0.000124,53.2171,128.641,98.7201,261.3932,1.1712e-05,-1.01e-06,0.0,0 STARLINK-4787,1 53904U 22119U   23245.83006521 -.00000101  00000-0  11712-4 0  9996,2 53904  53.2171 128.6410 0001240  98.7201 261.3932 15.08838797 52973,6917.884,95.438,540.607,538.891,0.0
